     2.100          NAVIGATION                              RINEX VERSION / TYPE
fic2rin                                 05/14/2017 00:06:28 PGM / RUN BY / DATE
                                                            END OF HEADER
 5 17  5 13  6  0  0.0 -.462569296360D-04  .170530256582D-11  .000000000000D+00
     .900000000000D+02 -.371875000000D+01  .546558480640D-08  .173120820978D+01
    -.614672899246D-07  .495014968328D-02  .509992241859D-05  .515373298836D+04
     .540000000000D+06 -.108033418655D-06 -.111737804317D+01  .115483999252D-06
     .946376589206D+00  .276375000000D+03  .536638928434D+00 -.843177978890D-08
    -.667884962947D-10  .100000000000D+01  .194800000000D+04  .000000000000D+00
     .340000000000D+01  .000000000000D+00 -.107102096081D-07  .900000000000D+02
     .532806000000D+06  .400000000000D+01
 6 17  5 13  6  0  0.0  .350209884346D-03  .500222085975D-11  .000000000000D+00
     .620000000000D+02  .743750000000D+01  .443625621645D-08 -.108947445052D+01
     .260770320892D-06  .808545039035D-03  .100601464510D-04  .515367092705D+04
     .540000000000D+06 -.391155481339D-07 -.215179108792D+01  .745058059692D-08
     .966985495924D+00  .192187500000D+03 -.114315425303D+01 -.782889753358D-08
     .602167939855D-09  .100000000000D+01  .194800000000D+04  .000000000000D+00
     .240000000000D+01  .000000000000D+00  .465661287308D-08  .620000000000D+02
     .532806000000D+06  .400000000000D+01
 7 17  5 13  6  0  0.0  .352071598172D-03 -.432009983342D-11  .000000000000D+00
     .115000000000D+03  .112343750000D+03  .421660420992D-08 -.183937911115D+01
     .570155680180D-05  .104532972910D-01  .678002834320D-05  .515374368095D+04
     .540000000000D+06 -.931322574615D-08  .101376120432D+01 -.173225998878D-06
     .962581057742D+00  .251843750000D+03 -.260399952660D+01 -.780496796539D-08
     .207151485834D-09  .100000000000D+01  .194800000000D+04  .000000000000D+00
     .240000000000D+01  .000000000000D+00 -.111758708954D-07  .115000000000D+03
     .532806000000D+06  .400000000000D+01
 8 17  5 13  6  0  0.0 -.595324672759D-04 -.125055521494D-11  .000000000000D+00
     .410000000000D+02 -.102718750000D+03  .412374319903D-08  .145923546681D+01
    -.532530248165D-05  .257757189684D-02  .800937414169D-05  .515363610458D+04
     .540000000000D+06  .614672899246D-07  .307739633530D+01 -.242143869400D-07
     .966962245767D+00  .228156250000D+03 -.689461098799D+00 -.787104214621D-08
    -.442875590403D-10  .100000000000D+01  .194800000000D+04  .000000000000D+00
     .240000000000D+01  .000000000000D+00  .512227416039D-08  .410000000000D+02
     .532806000000D+06  .400000000000D+01
 9 17  5 13  6  0  0.0  .362189952284D-03  .795807864051D-11  .000000000000D+00
     .121000000000D+03  .706250000000D+01  .452518849226D-08  .956318464903D+00
     .182539224625D-06  .759907183237D-03  .984594225883D-05  .515363886833D+04
     .540000000000D+06 -.745058059692D-08 -.644175758677D-01  .353902578354D-07
     .953982677733D+00  .185062500000D+03  .192142429250D+01 -.789568602987D-08
    -.571809532448D-09  .100000000000D+01  .194800000000D+04  .000000000000D+00
     .240000000000D+01  .000000000000D+00  .139698386192D-08  .121000000000D+03
     .532806000000D+06  .400000000000D+01
10 17  5 13  6  0  0.0 -.550267286599D-04  .954969436862D-11  .000000000000D+00
     .190000000000D+02  .687500000000D+00  .503628120990D-08  .286750632754D+01
     .502914190292D-07  .250013673212D-02  .522285699844D-05  .515366492462D+04
     .540000000000D+06 -.502914190292D-07 -.110445774380D+01 -.335276126862D-07
     .959587446052D+00  .280125000000D+03 -.277557810467D+01 -.814462497061D-08
    -.428589281035D-10  .100000000000D+01  .194800000000D+04  .000000000000D+00
     .240000000000D+01  .000000000000D+00  .186264514923D-08  .190000000000D+02
     .532806000000D+06  .400000000000D+01
11 17  5 13  6  0  0.0 -.687729567289D-03 -.261479726760D-11  .000000000000D+00
     .330000000000D+02 -.263750000000D+02  .564630661991D-08 -.183076736592D+01
    -.106729567051D-05  .167084649438D-01  .101253390312D-04  .515371187401D+04
     .540000000000D+06  .167638063431D-06 -.254476148826D+01  .366941094398D-06
     .900887975155D+00  .148125000000D+03  .164024327458D+01 -.833034699239D-08
     .392873507616D-09  .100000000000D+01  .194800000000D+04  .000000000000D+00
     .240000000000D+01  .000000000000D+00 -.121071934700D-07  .330000000000D+02
     .532806000000D+06  .400000000000D+01
13 17  5 13  6  0  0.0 -.815796665847D-04 -.136424205266D-11  .000000000000D+00
     .620000000000D+02  .253125000000D+02  .418731727571D-08 -.791776026867D+00
     .138208270073D-05  .377273047343D-02  .106841325760D-04  .515369326019D+04
     .540000000000D+06 -.111758708954D-07  .615103202317D-01 -.707805156708D-07
     .970111500238D+00  .174937500000D+03  .183943602890D+01 -.781603985515D-08
    -.551094383865D-09  .100000000000D+01  .194800000000D+04  .000000000000D+00
     .240000000000D+01  .000000000000D+00 -.111758708954D-07  .620000000000D+02
     .532806000000D+06  .400000000000D+01
15 17  5 13  6  0  0.0 -.349781941622D-03 -.682121026330D-12  .000000000000D+00
     .890000000000D+02 -.206250000000D+01  .528236288876D-08  .295089565265D-01
    -.633299350739D-07  .913469085936D-02  .928528606892D-05  .515379381752D+04
     .540000000000D+06  .558793544769D-07 -.125612621161D+00  .838190317154D-07
     .929565773311D+00  .179968750000D+03  .580598857461D+00 -.840999316712D-08
    -.669313593883D-09  .100000000000D+01  .194800000000D+04  .000000000000D+00
     .240000000000D+01  .000000000000D+00 -.107102096081D-07  .890000000000D+02
     .532806000000D+06  .400000000000D+01
16 17  5 13  6  0  0.0  .331709161401D-04  .682121026330D-12  .000000000000D+00
     .105000000000D+03 -.190000000000D+02  .403266797681D-08  .184772677187D+01
    -.104308128357D-05  .936927052680D-02  .193528831005D-05  .515369258881D+04
     .540000000000D+06 -.106170773506D-06  .211712808521D+01  .745058059692D-07
     .989549621914D+00  .360031250000D+03  .446784770836D+00 -.810105172704D-08
    -.106075847056D-09  .100000000000D+01  .194800000000D+04  .000000000000D+00
     .240000000000D+01  .000000000000D+00 -.107102096081D-07  .105000000000D+03
     .532806000000D+06  .400000000000D+01
17 17  5 13  6  0  0.0 -.179845374078D-03  .181898940355D-11  .000000000000D+00
     .930000000000D+02 -.103875000000D+03  .393302096897D-08  .888343783244D+00
    -.550597906113D-05  .116140014725D-01  .888668000698D-05  .515363117218D+04
     .540000000000D+06 -.173225998878D-06  .313473168776D+01  .242143869400D-07
     .980208478898D+00  .216781250000D+03 -.184993140111D+01 -.793783064251D-08
    -.860750139413D-10  .100000000000D+01  .194800000000D+04  .000000000000D+00
     .340000000000D+01  .000000000000D+00 -.111758708954D-07  .930000000000D+02
     .532806000000D+06  .400000000000D+01
18 17  5 13  6  0  0.0  .615212600678D-03  .181898940355D-11  .000000000000D+00
     .700000000000D+01 -.281250000000D+01  .571988111315D-08  .234882005182D+01
    -.389292836189D-06  .180559509899D-01  .445358455181D-05  .515375127792D+04
     .540000000000D+06  .154599547386D-06 -.114606929724D+01 -.238418579102D-06
     .925154011761D+00  .270656250000D+03 -.180583281379D+01 -.830248868912D-08
    -.839320675361D-10  .100000000000D+01  .194800000000D+04  .000000000000D+00
     .240000000000D+01  .000000000000D+00 -.111758708954D-07  .700000000000D+01
     .532806000000D+06  .400000000000D+01
20 17  5 13  6  0  0.0  .472018960863D-03  .147792889038D-11  .000000000000D+00
     .900000000000D+02  .875000000000D+00  .589988861119D-08  .488238229653D-02
     .206753611565D-06  .434525799938D-02  .483542680740D-05  .515366390228D+04
     .540000000000D+06 -.372529029846D-08 -.119745673200D+01 -.558793544769D-08
     .926486209332D+00  .268531250000D+03  .159388126625D+01 -.875179311874D-08
     .214294640518D-10  .100000000000D+01  .194800000000D+04  .000000000000D+00
     .240000000000D+01  .000000000000D+00 -.838190317154D-08  .900000000000D+02
     .532806000000D+06  .400000000000D+01
22 17  5 13  6  0  0.0  .117258168757D-04 -.121644916362D-10  .000000000000D+00
     .150000000000D+02  .115625000000D+01  .602667960682D-08  .398072600705D+00
     .206753611565D-06  .753200263716D-02  .486150383949D-05  .515381944466D+04
     .540000000000D+06 -.465661287308D-07 -.114618281822D+01  .260770320892D-07
     .923187770865D+00  .269156250000D+03 -.173837576813D+01 -.887715548344D-08
    -.364300888880D-10  .100000000000D+01  .194800000000D+04  .000000000000D+00
     .240000000000D+01  .000000000000D+00 -.176951289177D-07  .150000000000D+02
     .532806000000D+06  .400000000000D+01
23 17  5 13  6  0  0.0 -.211663078517D-03 -.682121026330D-12  .000000000000D+00
     .940000000000D+02  .793750000000D+01  .484055877156D-08 -.411206282769D+00
     .320374965668D-06  .116639519110D-01  .934489071369D-05  .515375306702D+04
     .540000000000D+06  .558793544769D-08 -.624554165131D-01  .197440385818D-06
     .944853284795D+00  .189187500000D+03 -.246721414071D+01 -.824284334751D-08
    -.597882047044D-09  .100000000000D+01  .194800000000D+04  .000000000000D+00
     .240000000000D+01  .000000000000D+00 -.204890966415D-07  .940000000000D+02
     .532806000000D+06  .400000000000D+01
24 17  5 13  6  0  0.0 -.347397290170D-04 -.568434188608D-12  .000000000000D+00
     .960000000000D+02  .122093750000D+03  .460447750926D-08 -.102883457971D+01
     .626966357231D-05  .565619918052D-02  .786036252975D-05  .515369879913D+04
     .540000000000D+06  .189989805222D-06  .960547582594D+00 -.502914190292D-07
     .945666007471D+00  .221468750000D+03  .487743709215D+00 -.815641117584D-08
     .510735559900D-10  .100000000000D+01  .194800000000D+04  .000000000000D+00
     .240000000000D+01  .000000000000D+00  .279396772385D-08  .960000000000D+02
     .532806000000D+06  .400000000000D+01
